NORAD_CAT_ID,OBJECT_NAME,OBJECT_TYPE,EPOCH,MEAN_MOTION,ECCENTRICITY,INCLINATION,RA_OF_ASC_NODE,ARG_OF_PERICENTER,MEAN_ANOMALY,BSTAR,MEAN_MOTION_DOT,MEAN_MOTION_DDOT,TLE_LINE0,TLE_LINE1,TLE_LINE2,SEMIMAJOR_AXIS,PERIOD,APOGEE,PERIGEE,DECAYED
55677.0,STARLINK-5324,PAYLOAD,2023-02-22 16:00:00,15.94956698,0.0037973,70.0,136.7776,163.2697,241.6046,-0.0026065,-0.01085914,0.00036269,0 STARLINK-5324,1 55677U 23021BB  23053.66667824 -.01085914  36269-3 -26065-2 0  9996,2 55677  70.0000 136.7776 0037973 163.2697 241.6046 15.94956698  1308,6666.572,90.285,313.752,263.122,0.0
55677.0,STARLINK-5324,PAYLOAD,2023-02-22 22:00:00,15.94459414,0.0034527,69.9993,136.0482,163.3914,236.2403,-0.0028567,-0.01143022,0.00039662,0 STARLINK-5324,1 55677U 23021BB  23053.91667824 -.01143022  39662-3 -28567-2 0  9998,2 55677  69.9993 136.0482 0034527 163.3914 236.2403 15.94459414  1309,6667.958,90.313,312.846,266.801,0.0
55677.0,STARLINK-5324,PAYLOAD,2023-02-23 08:00:01,15.93556262,0.0029941,69.9998,134.8346,165.2809,104.5871,-0.0029596,-0.01111568,0.00037325,0 STARLINK-5324,1 55677U 23021BB  23054.33334491 -.01111568  37325-3 -29596-2 0  9993,2 55677  69.9998 134.8346 0029941 165.2809 104.5871 15.93556262  1402,6670.477,90.364,312.314,272.37,0.0
55677.0,STARLINK-5324,PAYLOAD,2023-02-23 14:00:01,15.93025126,0.0027724,69.9997,134.1065,166.0505,97.3184,-0.0030569,-0.01109116,0.00036973,0 STARLINK-5324,1 55677U 23021BB  23054.58334491 -.01109116  36973-3 -30569-2 0  9996,2 55677  69.9997 134.1065 0027724 166.0505  97.3184 15.93025126  1306,6671.96,90.394,312.322,275.328,0.0
55677.0,STARLINK-5324,PAYLOAD,2023-02-23 16:00:00,15.92843628,0.0026851,70.0,133.8645,166.74,214.3584,-0.0030689,-0.01100343,0.00036368,0 STARLINK-5324,1 55677U 23021BB  23054.66667824 -.01100343  36368-3 -30689-2 0  9998,2 55677  70.0000 133.8645 0026851 166.7400 214.3584 15.92843628  1450,6672.467,90.404,312.248,276.415,0.0
55677.0,STARLINK-5324,PAYLOAD,2023-02-23 22:00:00,15.9235169,0.0023841,69.9993,133.1373,167.8875,206.059,-0.0033659,-0.01166779,0.00040325,0 STARLINK-5324,1 55677U 23021BB  23054.91667824 -.01166779  40325-3 -33659-2 0  9999,2 55677  69.9993 133.1373 0023841 167.8875 206.0590 15.92351690  1305,6673.841,90.432,311.617,279.795,0.0
55677.0,STARLINK-5324,PAYLOAD,2023-02-24 02:00:01,15.91951882,0.0022672,69.9999,132.6535,169.0842,79.8612,-0.0032022,-0.01084953,0.00035118,0 STARLINK-5324,1 55677U 23021BB  23055.08334491 -.01084953  35118-3 -32022-2 0  9999,2 55677  69.9999 132.6535 0022672 169.0842  79.8612 15.91951882  1527,6674.958,90.455,311.957,281.69,0.0
55677.0,STARLINK-5324,PAYLOAD,2023-02-24 08:00:01,15.91427131,0.0019914,70.0001,131.9277,172.0749,68.9384,-0.0033362,-0.01093861,0.00035467,0 STARLINK-5324,1 55677U 23021BB  23055.33334491 -.01093861  35467-3 -33362-2 0  9990,2 55677  70.0001 131.9277 0019914 172.0749  68.9384 15.91427131  1568,6676.425,90.485,311.586,284.995,0.0
55677.0,STARLINK-5324,PAYLOAD,2023-02-24 14:00:01,15.90910312,0.0017683,69.9996,131.2022,174.5744,58.026,-0.0035059,-0.01114805,0.00036544,0 STARLINK-5324,1 55677U 23021BB  23055.58334491 -.01114805  36544-3 -35059-2 0  9991,2 55677  69.9996 131.2022 0017683 174.5744  58.0260 15.90910312  1304,6677.871,90.514,311.545,287.928,0.0
55677.0,STARLINK-5324,PAYLOAD,2023-02-24 18:00:00,15.9053209,0.0016309,69.9997,130.7196,177.2294,289.5129,-0.003439,-0.01070645,0.00033789,0 STARLINK-5324,1 55677U 23021BB  23055.75001157 -.01070645  33789-3 -34390-2 0  9998,2 55677  69.9997 130.7196 0016309 177.2294 289.5129 15.90532090  1639,6678.93,90.536,311.688,289.902,0.0
55677.0,STARLINK-5324,PAYLOAD,2023-02-24 22:00:00,15.90223635,0.0014355,69.9995,130.236,181.4525,159.1912,-0.0037852,-0.01156176,0.00038827,0 STARLINK-5324,1 55677U 23021BB  23055.91667824 -.01156176  38827-3 -37852-2 0  9993,2 55677  69.9995 130.2360 0014355 181.4525 159.1912 15.90223635  1306,6679.794,90.553,311.247,292.07,0.0
55677.0,STARLINK-5324,PAYLOAD,2023-02-25 02:00:01,15.89826122,0.001326,70.0002,129.7536,184.9492,29.4191,-0.0035849,-0.01072385,0.00033657,0 STARLINK-5324,1 55677U 23021BB  23056.08334491 -.01072385  33657-3 -35849-2 0  9992,2 55677  70.0002 129.7536 0013260 184.9492  29.4191 15.89826122  1688,6680.907,90.576,311.631,293.913,0.0
55677.0,STARLINK-5324,PAYLOAD,2023-02-25 08:00:01,15.89297363,0.0011112,69.9999,129.0301,193.7389,10.7927,-0.0036999,-0.01075185,0.00033647,0 STARLINK-5324,1 55677U 23021BB  23056.33334491 -.01075185  33647-3 -36999-2 0  9997,2 55677  69.9999 129.0301 0011112 193.7389  10.7927 15.89297363  1724,6682.389,90.606,311.679,296.828,0.0
55677.0,STARLINK-5324,PAYLOAD,2023-02-25 14:00:01,15.8877788,0.0009825,69.9995,128.3071,203.2873,350.9254,-0.0038573,-0.01090768,0.00034381,0 STARLINK-5324,1 55677U 23021BB  23056.58334491 -.01090768  34381-3 -38573-2 0  9994,2 55677  69.9995 128.3071 0009825 203.2873 350.9254 15.88777880  1761,6683.845,90.636,312.277,299.143,0.0
55677.0,STARLINK-5324,PAYLOAD,2023-02-25 22:00:00,15.8810651,0.0008426,69.9992,127.3434,222.8808,76.8265,-0.0042491,-0.01160301,0.00038295,0 STARLINK-5324,1 55677U 23021BB  23056.91667824 -.01160301  38295-3 -42491-2 0  9993,2 55677  69.9992 127.3434 0008426 222.8808  76.8265 15.88106510  1819,6685.729,90.674,313.227,301.96,0.0
55677.0,STARLINK-5324,PAYLOAD,2023-02-26 06:00:00,15.87394229,0.0008588,69.9992,126.3815,244.6252,159.7436,-0.0043522,-0.01029872,0.0,0 STARLINK-5324,1 55677U 23021BB  23057.25001157 -.01029872  00000-0 -43522-2 0  9995,2 55677  69.9992 126.3815 0008588 244.6252 159.7436 15.87394229  1877,6687.729,90.715,315.337,303.85,0.0
55677.0,STARLINK-5324,PAYLOAD,2023-02-26 14:00:01,15.86671865,0.0009145,69.9993,125.4205,262.1397,246.0468,-0.0043775,-0.01003146,0.0,0 STARLINK-5324,1 55677U 23021BB  23057.58334491 -.01003146  00000-0 -43775-2 0  9997,2 55677  69.9993 125.4205 0009145 262.1397 246.0468 15.86671865  1302,6689.758,90.756,317.741,305.506,0.0
55677.0,STARLINK-5324,PAYLOAD,2023-02-26 22:00:00,15.85975473,0.0008252,69.9991,124.4598,269.2866,341.861,-0.0046048,-0.01017087,0.0,0 STARLINK-5324,1 55677U 23021BB  23057.91667824 -.01017087  00000-0 -46048-2 0  9998,2 55677  69.9991 124.4598 0008252 269.2866 341.8610 15.85975473  1978,6691.716,90.796,319.103,308.059,0.0
55677.0,STARLINK-5324,PAYLOAD,2023-02-27 14:00:01,15.84544018,0.0007887,69.9997,122.5426,272.057,182.489,-0.0048312,-0.00997301,0.0,0 STARLINK-5324,1 55677U 23021BB  23058.58334491 -.00997301  00000-0 -48312-2 0  9994,2 55677  69.9997 122.5426 0007887 272.0570 182.4890 15.84544018  1302,6695.746,90.878,322.892,312.33,0.0
55677.0,STARLINK-5324,PAYLOAD,2023-02-27 22:00:01,15.83795588,0.0003708,70.0003,121.5859,276.828,278.2242,-0.0046777,-0.00934995,0.0,0 STARLINK-5324,1 55677U 23021BB  23058.91668981 -.00934995  00000-0 -46777-2 0  9998,2 55677  70.0003 121.5859 0003708 276.8280 278.2242 15.83795588  2136,6697.855,90.921,322.204,317.237,0.0
55677.0,STARLINK-5324,PAYLOAD,2023-02-28 14:00:01,15.82426888,0.0003633,69.9999,119.6751,269.7944,123.4745,-0.0053492,-0.00994976,0.0,0 STARLINK-5324,1 55677U 23021BB  23059.58334491 -.00994976  00000-0 -53492-2 0  9995,2 55677  69.9999 119.6751 0003633 269.7944 123.4745 15.82426888  1301,6701.717,90.999,326.017,321.147,0.0
55677.0,STARLINK-5324,PAYLOAD,2023-02-28 16:00:00,15.8223479,0.0003497,69.9999,119.4366,270.6021,237.2233,-0.0052708,-0.0097391,0.0,0 STARLINK-5324,1 55677U 23021BB  23059.66667824 -.00973910  00000-0 -52708-2 0  9997,2 55677  69.9999 119.4366 0003497 270.6021 237.2233 15.82234790  2256,6702.259,91.011,326.468,321.78,0.0
55677.0,STARLINK-5324,PAYLOAD,2023-02-28 22:00:00,15.81729176,0.0003598,70.0002,118.7209,278.4631,212.6821,-0.0056024,-0.01007036,0.0,0 STARLINK-5324,1 55677U 23021BB  23059.91667824 -.01007036  00000-0 -56024-2 0  9998,2 55677  70.0002 118.7209 0003598 278.4631 212.6821 15.81729176  1308,6703.687,91.04,327.964,323.14,0.0
55677.0,STARLINK-5324,PAYLOAD,2023-03-01 14:00:01,15.80314605,0.0003693,69.9998,116.8159,270.8235,53.5398,-0.0059605,-0.01003751,0.0,0 STARLINK-5324,1 55677U 23021BB  23060.58334491 -.01003751  00000-0 -59605-2 0  9992,2 55677  69.9998 116.8159 0003693 270.8235  53.5398 15.80314605  2391,6707.687,91.121,332.029,327.075,0.0
55677.0,STARLINK-5324,PAYLOAD,2023-03-01 22:00:00,15.79597575,0.0003669,69.9995,115.8638,279.6622,140.0449,-0.0060717,-0.00990862,0.0,0 STARLINK-5324,1 55677U 23021BB  23060.91667824 -.00990862  00000-0 -60717-2 0  9991,2 55677  69.9995 115.8638 0003669 279.6622 140.0449 15.79597575  1305,6709.717,91.162,334.044,329.12,0.0
55677.0,STARLINK-5324,PAYLOAD,2023-03-02 20:00:01,15.77644978,0.0003456,69.9998,113.2536,269.5889,317.9321,-0.0065424,-0.00978554,0.0,0 STARLINK-5324,1 55677U 23021BB  23061.83334491 -.00978554  00000-0 -65424-2 0  9998,2 55677  69.9998 113.2536 0003456 269.5889 317.9321 15.77644978  1306,6715.252,91.275,339.438,334.796,0.0
55677.0,STARLINK-5324,PAYLOAD,2023-03-03 14:00:01,15.76068695,0.0003443,69.9998,111.1233,273.8431,249.8383,-0.0071405,-0.0099372,0.0,0 STARLINK-5324,1 55677U 23021BB  23062.58334491 -.00993720  00000-0 -71405-2 0  9999,2 55677  69.9998 111.1233 0003443 273.8431 249.8383 15.76068695  2716,6719.729,91.367,343.907,339.28,0.0
55677.0,STARLINK-5324,PAYLOAD,2023-03-03 22:00:00,15.75385272,0.00036,69.9993,110.1771,279.7305,334.1939,-0.0076241,-0.01043062,0.0,0 STARLINK-5324,1 55677U 23021BB  23062.91667824 -.01043062  00000-0 -76241-2 0  9994,2 55677  69.9993 110.1771 0003600 279.7305 334.1939 15.75385272  1308,6721.672,91.406,345.957,341.117,0.0
55677.0,STARLINK-5324,PAYLOAD,2023-03-04 14:00:01,15.73963108,0.0003626,69.9995,108.291,273.4143,158.4773,-0.007994,-0.01029365,0.0,0 STARLINK-5324,1 55677U 23021BB  23063.58334491 -.01029365  00000-0 -79940-2 0  9998,2 55677  69.9995 108.2910 0003626 273.4143 158.4773 15.73963108  1303,6725.72,91.489,350.024,345.147,0.0
